{
  "type": "FeatureCollection",
  "generator": "overpass-turbo",
  "copyright": "The data included in this document is from www.openstreetmap.org. The data is made available under ODbL.",
  "timestamp": "2024-05-04T23:33:30Z",
  "features": [
    {
      "type": "Feature",
      "properties": {
        "@id": "node/2235254641",
        "addr:city": "San Jose",
        "addr:housenumber": "1688",
        "addr:postcode": "95131",
        "addr:state": "CA",
        "addr:street": "Hostetter Road",
        "addr:unit": "E",
        "brand": "99 Ranch Market",
        "brand:wikidata": "Q4646307",
        "cuisine": "asian",
        "delivery": "yes",
        "name": "99 Ranch Market",
        "name:en": "99 Ranch Market",
        "name:zh-Hans": "大华超级市场",
        "name:zh-Hant": "大華超級市場",
        "opening_hours": "Mo-Su 09:00-21:00",
        "payment:ebt": "yes",
        "payment:nfc_mobile_payments": "yes",
        "payment:snap": "yes",
        "payment:snapscan": "yes",
        "phone": "+14084368899",
        "shop": "supermarket",
        "website": "https://99ranch.com/"
      },
      "geometry": {
        "type": "Point",
        "coordinates": [
          -121.8844054,
          37.3863372
        ]
      },
      "id": "node/2235254641"
    },
    {
      "type": "Feature",
      "properties": {
        "@id": "node/2235256988",
        "addr:city": "San Jose",
        "addr:housenumber": "1698",
        "addr:postcode": "95131",
        "addr:state": "CA",
        "addr:street": "Hostetter Road",
        "addr:unit": "M",
        "brand": "Paris Baguette",
        "brand:wikidata": "Q62605260",
        "delivery": "yes",
        "indoor_seating": "yes",
        "name": "Paris Baguette",
        "opening_hours": "Mo-Su 07:00-22:00",
        "payment:credit_cards": "yes",
        "payment:nfc_mobile_payments": "yes",
        "phone": "+14085738888",
        "shop": "bakery",
        "takeaway": "yes",
        "website": "https://www.parisbaguette.com"
      },
      "geometry": {
        "type": "Point",
        "coordinates": [
          -121.883384,
          37.3873154
        ]
      },
      "id": "node/2235256988"
    },
    {
      "type": "Feature",
      "properties": {
        "@id": "node/3075986785",
        "addr:city": "San Jose",
        "addr:housenumber": "1688",
        "addr:postcode": "95131",
        "addr:state": "CA",
        "addr:street": "Hostetter Road",
        "addr:unit": "D",
        "amenity": "cafe",
        "brand": "Bambu",
        "brand:wikidata": "Q83437245",
        "cuisine": "vietnamese;bubble_tea",
        "delivery": "yes",
        "indoor_seating": "yes",
        "internet_access": "wlan",
        "internet_access:fee": "no",
        "name": "Bambu",
        "official_name": "Bambu Coffee & Snacks",
        "opening_hours": "Tu-Su 09:00-20:00",
        "outdoor_seating": "no",
        "payment:nfc_mobile_payments": "yes",
        "phone": "+14083928238",
        "takeaway": "yes",
        "website": "https://www.drinkbambu.com/",
        "wheelchair": "limited"
      },
      "geometry": {
        "type": "Point",
        "coordinates": [
          -121.8846316,
          37.3864568
        ]
      },
      "id": "node/3075986785"
    },
    {
      "type": "Feature",
      "properties": {
        "@id": "node/3933251842",
        "addr:city": "San Jose",
        "addr:housenumber": "1628",
        "addr:postcode": "95131",
        "addr:street": "Hostetter Road",
        "addr:unit": "F",
        "amenity": "restaurant",
        "cuisine": "korean",
        "name": "Gen Korean BBQ",
        "opening_hours": "Mo-Sa 10:30-23:30; Su 10:30-23:00"
      },
      "geometry": {
        "type": "Point",
        "coordinates": [
          -121.8855833,
          37.3872774
        ]
      },
      "id": "node/3933251842"
    },
    {
      "type": "Feature",
      "properties": {
        "@id": "node/5078370921",
        "addr:city": "San Jose",
        "addr:housenumber": "1728",
        "addr:postcode": "95131",
        "addr:street": "Hostetter Road",
        "addr:unit": "30",
        "amenity": "cafe",
        "brand": "Sharetea",
        "brand:wikidata": "Q64827032",
        "cuisine": "bubble_tea",
        "delivery": "yes",
        "internet_access": "wlan",
        "internet_access:fee": "no",
        "name": "Sharetea",
        "name:en": "Sharetea",
        "name:zh": "歇腳亭",
        "opening_hours": "Mo-Su 11:30-21:00",
        "phone": "+14088371920",
        "takeaway": "yes",
        "website": "https://www.1992sharetea.com/"
      },
      "geometry": {
        "type": "Point",
        "coordinates": [
          -121.882871,
          37.3875641
        ]
      },
      "id": "node/5078370921"
    },
    {
      "type": "Feature",
      "properties": {
        "@id": "node/5078374412",
        "addr:city": "San Jose",
        "addr:housenumber": "1628",
        "addr:postcode": "95131",
        "addr:street": "Hostetter Road",
        "addr:unit": "H",
        "amenity": "ice_cream",
        "name": "Popbar",
        "opening_hours": "Mo-Th 12:00-20:30; Fr,Sa 12:00-22:00; Su 12:00-21:00"
      },
      "geometry": {
        "type": "Point",
        "coordinates": [
          -121.8854316,
          37.3871811
        ]
      },
      "id": "node/5078374412"
    },
    {
      "type": "Feature",
      "properties": {
        "@id": "node/9339348373",
        "addr:city": "San Jose",
        "addr:housenumber": "1698",
        "addr:postcode": "95131",
        "addr:state": "CA",
        "addr:street": "Hostetter Road",
        "addr:unit": "E",
        "amenity": "restaurant",
        "cuisine": "chinese;hotpot;taiwanese;dessert",
        "delivery": "yes",
        "dinner": "yes",
        "internet_access": "yes",
        "lunch": "yes",
        "name": "Boiling Point",
        "opening_hours": "Mo-Su 11:00-23:00",
        "payment:credit_cards": "yes",
        "payment:debit_cards": "yes",
        "phone": "+14086003672",
        "takeaway": "yes",
        "website": "https://www.bpgroupusa.com/",
        "wheelchair": "yes",
        "wifi": "free"
      },
      "geometry": {
        "type": "Point",
        "coordinates": [
          -121.883738,
          37.3869016
        ]
      },
      "id": "node/9339348373"
    },
    {
      "type": "Feature",
      "properties": {
        "@id": "node/10218884065",
        "addr:city": "San Jose",
        "addr:housenumber": "1698",
        "addr:postcode": "95131",
        "addr:state": "CA",
        "addr:street": "Hostetter Road",
        "amenity": "restaurant",
        "breakfast": "yes",
        "cuisine": "chinese;breakfast",
        "delivery": "yes",
        "dinner": "yes",
        "lunch": "yes",
        "name": "ASJ Restaurant",
        "opening_hours": "Mo-Fr 11:00-21:30; Sa,Su 09:00-21:30",
        "payment:cash": "only",
        "phone": "+14084418168",
        "takeaway": "yes",
        "website": "https://www.asjsanjose.com",
        "wheelchair": "yes"
      },
      "geometry": {
        "type": "Point",
        "coordinates": [
          -121.883795,
          37.3868493
        ]
      },
      "id": "node/10218884065"
    },
    {
      "type": "Feature",
      "properties": {
        "@id": "node/10218931793",
        "addr:city": "San Jose",
        "addr:housenumber": "1698",
        "addr:postcode": "95131",
        "addr:state": "CA",
        "addr:street": "Hostetter Road",
        "addr:unit": "K",
        "amenity": "cafe",
        "cuisine": "asian",
        "delivery": "yes",
        "dinner": "yes",
        "drink:coffee": "yes",
        "drink:tea": "yes",
        "indoor_seating": "yes",
        "lunch": "yes",
        "name": "Venus Cafe",
        "opening_hours": "Sa-Th 11:00-22:00; Fr 11:00-23:00",
        "outdoor_seating": "yes",
        "payment:nfc_mobile_payments": "yes",
        "phone": "+14085731128",
        "takeaway": "yes",
        "website": "http://venuscafe-sj.com/",
        "wheelchair": "yes"
      },
      "geometry": {
        "type": "Point",
        "coordinates": [
          -121.883505,
          37.3871821
        ]
      },
      "id": "node/10218931793"
    },
    {
      "type": "Feature",
      "properties": {
        "@id": "node/10218960371",
        "addr:city": "San Jose",
        "addr:housenumber": "1698",
        "addr:postcode": "95131",
        "addr:state": "CA",
        "addr:street": "Hostetter Road",
        "addr:unit": "L",
        "amenity": "fast_food",
        "cuisine": "chicken",
        "delivery": "yes",
        "dinner": "yes",
        "indoor_seating": "yes",
        "lunch": "yes",
        "name": "Von's Chicken",
        "opening_hours": "Mo-Sa 11:00-21:00; Su 12:00-19:00",
        "outdoor_seating": "yes",
        "phone": "+14088168922",
        "takeaway": "yes",
        "website": "https://www.vonschickensj.com/"
      },
      "geometry": {
        "type": "Point",
        "coordinates": [
          -121.883452,
          37.3872417
        ]
      },
      "id": "node/10218960371"
    },
    {
      "type": "Feature",
      "properties": {
        "@id": "node/10220554933",
        "addr:city": "San Jose",
        "addr:housenumber": "1698",
        "addr:postcode": "95131",
        "addr:state": "CA",
        "addr:street": "Hostetter Road",
        "cuisine": "tea;dessert",
        "delivery": "yes",
        "indoor_seating": "yes",
        "name": "Teaspoon",
        "opening_hours": "Su-Th 11:00-22:00; Fr,Sa 11:00-23:00",
        "payment:nfc_mobile_payments": "yes",
        "phone": "+14084535566",
        "shop": "tea",
        "takeaway": "yes",
        "website": "https://www.teaspoonlife.com/",
        "wheelchair": "yes"
      },
      "geometry": {
        "type": "Point",
        "coordinates": [
          -121.883559,
          37.3870196
        ]
      },
      "id": "node/10220554933"
    },
    {
      "type": "Feature",
      "properties": {
        "@id": "node/10220568370",
        "addr:city": "San Jose",
        "addr:housenumber": "1698",
        "addr:postcode": "95131",
        "addr:state": "CA",
        "addr:street": "Hostetter Road",
        "amenity": "restaurant",
        "cuisine": "chinese;meat",
        "delivery": "yes",
        "dinner": "yes",
        "indoor_seating": "yes",
        "lunch": "yes",
        "name": "Kim Tar B.B.Q.",
        "opening_hours": "Mo-Su 10:30-21:00",
        "payment:cash": "only",
        "phone": "+14084532006",
        "takeaway": "yes",
        "wheelchair": "yes"
      },
      "geometry": {
        "type": "Point",
        "coordinates": [
          -121.8835804,
          37.387088
        ]
      },
      "id": "node/10220568370"
    },
    {
      "type": "Feature",
      "properties": {
        "@id": "node/10220981383",
        "addr:city": "San Jose",
        "addr:housenumber": "1688",
        "addr:postcode": "95131",
        "addr:state": "CA",
        "addr:street": "Hostetter Road",
        "addr:unit": "C",
        "amenity": "restaurant",
        "cuisine": "bubble_tea;ice_cream;smoothie;pasta;noodle;tea;coffee;juice;dessert",
        "delivery": "yes",
        "diet:vegan": "yes",
        "indoor_seating": "yes",
        "internet_access": "wlan",
        "internet_access:fee": "no",
        "name": "Happiness Cafe",
        "opening_hours": "Mo,Tu 11:00-18:00; Th-Su 11:00-19:00",
        "outdoor_seating": "yes",
        "phone": "+14085738699",
        "takeaway": "yes",
        "website": "https://www.happiness-cafe.com/"
      },
      "geometry": {
        "type": "Point",
        "coordinates": [
          -121.8846549,
          37.3864867
        ]
      },
      "id": "node/10220981383"
    },
    {
      "type": "Feature",
      "properties": {
        "@id": "node/10220981384",
        "addr:city": "San Jose",
        "addr:housenumber": "1698",
        "addr:postcode": "95131",
        "addr:state": "CA",
        "addr:street": "Hostetter Road",
        "amenity": "restaurant",
        "cuisine": "hawaiian",
        "delivery": "yes",
        "dinner": "yes",
        "drink:beer": "yes",
        "indoor_seating": "yes",
        "lunch": "yes",
        "name": "Poke House",
        "opening_hours": "Mo-Su 11:00-21:00",
        "outdoor_seating": "yes",
        "payment:credit_cards": "yes",
        "payment:nfc_mobile_payments": "yes",
        "phone": "+14087539361",
        "takeaway": "yes",
        "website": "https://www.poke.house/",
        "wheelchair": "yes"
      },
      "geometry": {
        "type": "Point",
        "coordinates": [
          -121.8835945,
          37.3869837
        ]
      },
      "id": "node/10220981384"
    }
  ]
}