{
  "type": "FeatureCollection",
  "generator": "overpass-turbo",
  "copyright": "The data included in this document is from www.openstreetmap.org. The data is made available under ODbL.",
  "timestamp": "2024-05-05T18:32:45Z",
  "features": [
    {
      "type": "Feature",
      "properties": {
        "@id": "node/3539618863",
        "addr:city": "San Jose",
        "addr:housenumber": "201",
        "addr:postcode": "95112",
        "addr:state": "CA",
        "addr:street": "East Taylor Street",
        "addr:unit": "2",
        "brand": "Meat House",
        "disused:shop": "gift",
        "level": "0",
        "name": "無肉不歡;Meat House",
        "name:en": "Meat House",
        "name:zh": "無肉不歡",
        "name:zh-Hans": "无肉不欢",
        "name:zh-Hant": "無肉不歡",
        "old_name": "Edible Arrangements",
        "shop": "butcher"
      },
      "geometry": {
        "type": "Point",
        "coordinates": [
          -121.895863,
          37.3513332
        ]
      },
      "id": "node/3539618863"
    },
    {
      "type": "Feature",
      "properties": {
        "@id": "node/3711149878",
        "addr:city": "San Jose",
        "addr:housenumber": "960",
        "addr:postcode": "95112",
        "addr:street": "North 10th Street",
        "name": "Omnilife",
        "shop": "health_food"
      },
      "geometry": {
        "type": "Point",
        "coordinates": [
          -121.8944598,
          37.3590952
        ]
      },
      "id": "node/3711149878"
    },
    {
      "type": "Feature",
      "properties": {
        "@id": "node/6040818436",
        "addr:city": "San Jose",
        "addr:housenumber": "2331",
        "addr:postcode": "95116",
        "addr:state": "CA",
        "addr:street": "McKee Road",
        "cuisine": "asian",
        "name": "McKee Seafood Supermarket",
        "operator": "PAC International Supermarket Incorporated",
        "shop": "seafood"
      },
      "geometry": {
        "type": "Point",
        "coordinates": [
          -121.8493417,
          37.3674282
        ]
      },
      "id": "node/6040818436"
    },
    {
      "type": "Feature",
      "properties": {
        "@id": "node/8450355725",
        "addr:city": "San Jose",
        "addr:housenumber": "1507",
        "addr:postcode": "95128",
        "addr:state": "CA",
        "addr:street": "South Winchester Boulevard",
        "name": "Los Cuates Meat Market",
        "operator": "Godinez Family Corporation",
        "shop": "butcher"
      },
      "geometry": {
        "type": "Point",
        "coordinates": [
          -121.9504287,
          37.2965949
        ]
      },
      "id": "node/8450355725"
    },
    {
      "type": "Feature",
      "properties": {
        "@id": "node/8455885911",
        "addr:city": "San Jose",
        "addr:housenumber": "301",
        "addr:postcode": "95133",
        "addr:state": "CA",
        "addr:street": "North Jackson Avenue",
        "addr:unit": "11",
        "name": "Prime Time Nutrition",
        "shop": "health_food"
      },
      "geometry": {
        "type": "Point",
        "coordinates": [
          -121.8514206,
          37.3658977
        ]
      },
      "id": "node/8455885911"
    },
    {
      "type": "Feature",
      "properties": {
        "@id": "node/9607386258",
        "addr:city": "San Jose",
        "addr:housenumber": "4160",
        "addr:postcode": "95129",
        "addr:state": "CA",
        "addr:street": "Stevens Creek Boulevard",
        "addr:unit": "10",
        "name": "Hamilton Euromarket",
        "phone": "+1-669-369-8020",
        "shop": "deli"
      },
      "geometry": {
        "type": "Point",
        "coordinates": [
          -121.9751171,
          37.3225775
        ]
      },
      "id": "node/9607386258"
    }
  ]
}